start=new Date('2021-11-14T00:00:00.000Z').valueOf();
sats=[{"REV_AT_EPOCH":"5925","BSTAR":"0.00005444400000","MEAN_MOTION_DDOT":"0.0000000000000","APOAPSIS":"548.306","NORAD_CAT_ID":"46709","INCLINATION":"53.0557","RA_OF_ASC_NODE":"135.1175","ECCENTRICITY":"0.00015490","FILE":"3214514","SITE":"AFETR","REF_FRAME":"TEME","OBJECT_TYPE":"PAYLOAD","MEAN_MOTION_DOT":"0.00000529","PERIOD":"95.593","TLE_LINE2":"2 46709  53.0557 135.1175 0001549  81.3791 278.7374 15.06393573 59255","ARG_OF_PERICENTER":"81.3791","ELEMENT_SET_NO":"999","GP_ID":"189712286","PERIAPSIS":"546.161","EPOCH":"2021-11-13T21:26:19.500000","MEAN_ANOMALY":"278.7374","TLE_LINE1":"1 46709U 20073AR  21317.89328125  .00000529  00000-0  54444-4 0  9991","CLASSIFICATION_TYPE":"U","TIME_SYSTEM":"UTC","CENTER_NAME":"EARTH","DECAY_DATE":null,"COUNTRY_CODE":"US","MEAN_MOTION":"15.06393573","EPHEMERIS_TYPE":"0","MEAN_ELEMENT_THEORY":"SGP4","OBJECT_ID":"2020-073AR","LAUNCH_DATE":"2020-10-18","SEMIMAJOR_AXIS":"6925.368","RCS_SIZE":"LARGE","OBJECT_NAME":"STARLINK-1810"},{"PERIAPSIS":"546.205","EPOCH":"2021-11-13T18:59:03.369408","MEAN_ANOMALY":"286.7102","CLASSIFICATION_TYPE":"U","TLE_LINE1":"1 46710U 20073AS  21317.79101122 -.00000479  00000-0 -13272-4 0  9998","TIME_SYSTEM":"UTC","DECAY_DATE":null,"CENTER_NAME":"EARTH","MEAN_ELEMENT_THEORY":"SGP4","EPHEMERIS_TYPE":"0","COUNTRY_CODE":"US","MEAN_MOTION":"15.06396463","OBJECT_ID":"2020-073AS","LAUNCH_DATE":"2020-10-18","SEMIMAJOR_AXIS":"6925.359","RCS_SIZE":"LARGE","OBJECT_NAME":"STARLINK-1811","REV_AT_EPOCH":"5924","BSTAR":"-0.00001327200000","MEAN_MOTION_DDOT":"0.0000000000000","APOAPSIS":"548.244","NORAD_CAT_ID":"46710","INCLINATION":"53.0545","RA_OF_ASC_NODE":"135.6014","ECCENTRICITY":"0.00014720","REF_FRAME":"TEME","SITE":"AFETR","FILE":"3214514","OBJECT_TYPE":"PAYLOAD","MEAN_MOTION_DOT":"-0.00000479","ARG_OF_PERICENTER":"73.4048","ELEMENT_SET_NO":"999","TLE_LINE2":"2 46710  53.0545 135.6014 0001472  73.4048 286.7102 15.06396463 59241","PERIOD":"95.592","GP_ID":"189712537"},{"ELEMENT_SET_NO":"999","ARG_OF_PERICENTER":"91.2469","PERIOD":"95.593","TLE_LINE2":"2 46711  53.0541 120.4176 0001313  91.2469 268.8671 15.06391980 59463","OBJECT_TYPE":"PAYLOAD","MEAN_MOTION_DOT":"0.00000598","GP_ID":"189711285","ECCENTRICITY":"0.00013130","RA_OF_ASC_NODE":"120.4176","REF_FRAME":"TEME","FILE":"3214514","SITE":"AFETR","BSTAR":"0.00005901800000","REV_AT_EPOCH":"5946","APOAPSIS":"548.147","INCLINATION":"53.0541","NORAD_CAT_ID":"46711","MEAN_MOTION_DDOT":"0.0000000000000","LAUNCH_DATE":"2020-10-18","OBJECT_NAME":"STARLINK-1813","RCS_SIZE":"LARGE","SEMIMAJOR_AXIS":"6925.373","DECAY_DATE":null,"CENTER_NAME":"EARTH","TIME_SYSTEM":"UTC","OBJECT_ID":"2020-073AT","MEAN_ELEMENT_THEORY":"SGP4","COUNTRY_CODE":"US","EPHEMERIS_TYPE":"0","MEAN_MOTION":"15.06391980","EPOCH":"2021-11-13T19:56:47.535072","CLASSIFICATION_TYPE":"U","TLE_LINE1":"1 46711U 20073AT  21317.83110573  .00000598  00000-0  59018-4 0  9992","MEAN_ANOMALY":"268.8671","PERIAPSIS":"546.329"},{"PERIAPSIS":"546.207","TLE_LINE1":"1 46712U 20073AU  21317.86335496  .00000699  00000-0  65827-4 0  9996","CLASSIFICATION_TYPE":"U","MEAN_ANOMALY":"277.9703","EPOCH":"2021-11-13T20:43:13.868544","OBJECT_ID":"2020-073AU","MEAN_MOTION":"15.06396451","COUNTRY_CODE":"US","EPHEMERIS_TYPE":"0","MEAN_ELEMENT_THEORY":"SGP4","CENTER_NAME":"EARTH","DECAY_DATE":null,"TIME_SYSTEM":"UTC","OBJECT_NAME":"STARLINK-1814","SEMIMAJOR_AXIS":"6925.359","RCS_SIZE":"LARGE","LAUNCH_DATE":"2020-10-18","APOAPSIS":"548.242","INCLINATION":"53.0549","NORAD_CAT_ID":"46712","MEAN_MOTION_DDOT":"0.0000000000000","BSTAR":"0.00006582700000","REV_AT_EPOCH":"5946","SITE":"AFETR","FILE":"3214514","REF_FRAME":"TEME","ECCENTRICITY":"0.00014690","RA_OF_ASC_NODE":"120.2803","GP_ID":"189711535","PERIOD":"95.592","TLE_LINE2":"2 46712  53.0549 120.2803 0001469  82.1452 277.9703 15.06396451 59465","ARG_OF_PERICENTER":"82.1452","ELEMENT_SET_NO":"999","MEAN_MOTION_DOT":"0.00000699","OBJECT_TYPE":"PAYLOAD"},{"REV_AT_EPOCH":"5946","BSTAR":"0.00010408000000","MEAN_MOTION_DDOT":"0.0000000000000","APOAPSIS":"548.130","INCLINATION":"53.0548","NORAD_CAT_ID":"46713","RA_OF_ASC_NODE":"120.2242","ECCENTRICITY":"0.00013510","REF_FRAME":"TEME","SITE":"AFETR","FILE":"3214514","OBJECT_TYPE":"PAYLOAD","MEAN_MOTION_DOT":"0.00001269","ARG_OF_PERICENTER":"82.5889","ELEMENT_SET_NO":"999","TLE_LINE2":"2 46713  53.0548 120.2242 0001351  82.5889 277.5254 15.06406327 59461","PERIOD":"95.592","GP_ID":"189712787","PERIAPSIS":"546.259","EPOCH":"2021-11-13T21:00:28.777248","MEAN_ANOMALY":"277.5254","CLASSIFICATION_TYPE":"U","TLE_LINE1":"1 46713U 20073AV  21317.87533307  .00001269  00000-0  10408-3 0  9997","TIME_SYSTEM":"UTC","DECAY_DATE":null,"CENTER_NAME":"EARTH","MEAN_ELEMENT_THEORY":"SGP4","COUNTRY_CODE":"US","EPHEMERIS_TYPE":"0","MEAN_MOTION":"15.06406327","OBJECT_ID":"2020-073AV","LAUNCH_DATE":"2020-10-18","SEMIMAJOR_AXIS":"6925.329","RCS_SIZE":"LARGE","OBJECT_NAME":"STARLINK-1815"},{"PERIAPSIS":"546.343","MEAN_ANOMALY":"275.6534","CLASSIFICATION_TYPE":"U","TLE_LINE1":"1 46714U 20073AW  21317.86427724  .00001098  00000-0  92646-4 0  9997","EPOCH":"2021-11-13T20:44:33.553536","MEAN_ELEMENT_THEORY":"SGP4","COUNTRY_CODE":"US","EPHEMERIS_TYPE":"0","MEAN_MOTION":"15.06391051","OBJECT_ID":"2020-073AW","TIME_SYSTEM":"UTC","DECAY_DATE":null,"CENTER_NAME":"EARTH","RCS_SIZE":"LARGE","SEMIMAJOR_AXIS":"6925.376","OBJECT_NAME":"STARLINK-1816","LAUNCH_DATE":"2020-10-18","MEAN_MOTION_DDOT":"0.0000000000000","APOAPSIS":"548.139","INCLINATION":"53.0541","NORAD_CAT_ID":"46714","REV_AT_EPOCH":"5946","BSTAR":"0.00009264600000","REF_FRAME":"TEME","FILE":"3214514","SITE":"AFETR","ECCENTRICITY":"0.00012970","RA_OF_ASC_NODE":"120.2621","GP_ID":"189713038","OBJECT_TYPE":"PAYLOAD","MEAN_MOTION_DOT":"0.00001098","ARG_OF_PERICENTER":"84.4603","ELEMENT_SET_NO":"999","PERIOD":"95.593","TLE_LINE2":"2 46714  53.0541 120.2621 0001297  84.4603 275.6534 15.06391051 59467"},{"GP_ID":"189711786","TLE_LINE2":"2 46715  53.0543 120.2831 0001545  82.6098 277.5067 15.06394597 59467","PERIOD":"95.592","ARG_OF_PERICENTER":"82.6098","ELEMENT_SET_NO":"999","OBJECT_TYPE":"PAYLOAD","MEAN_MOTION_DOT":"-0.00001120","FILE":"3214514","SITE":"AFETR","REF_FRAME":"TEME","ECCENTRICITY":"0.00015450","RA_OF_ASC_NODE":"120.2831","APOAPSIS":"548.300","NORAD_CAT_ID":"46715","INCLINATION":"53.0543","MEAN_MOTION_DDOT":"0.0000000000000","BSTAR":"-0.00005629000000","REV_AT_EPOCH":"5946","OBJECT_NAME":"STARLINK-1817","RCS_SIZE":"LARGE","SEMIMAJOR_AXIS":"6925.365","LAUNCH_DATE":"2020-10-18","OBJECT_ID":"2020-073AX","COUNTRY_CODE":"US","EPHEMERIS_TYPE":"0","MEAN_MOTION":"15.06394597","MEAN_ELEMENT_THEORY":"SGP4","CENTER_NAME":"EARTH","DECAY_DATE":null,"TIME_SYSTEM":"UTC","TLE_LINE1":"1 46715U 20073AX  21317.86058279 -.00001120  00000-0 -56290-4 0  9996","CLASSIFICATION_TYPE":"U","MEAN_ANOMALY":"277.5067","EPOCH":"2021-11-13T20:39:14.353056","PERIAPSIS":"546.160"},{"PERIAPSIS":"546.060","MEAN_ANOMALY":"287.3389","CLASSIFICATION_TYPE":"U","TLE_LINE1":"1 46716U 20073AY  21317.87579463 -.00000734  00000-0 -30392-4 0  9996","EPOCH":"2021-11-13T21:01:08.656032","MEAN_ELEMENT_THEORY":"SGP4","COUNTRY_CODE":"US","MEAN_MOTION":"15.06401786","EPHEMERIS_TYPE":"0","OBJECT_ID":"2020-073AY","TIME_SYSTEM":"UTC","DECAY_DATE":null,"CENTER_NAME":"EARTH","SEMIMAJOR_AXIS":"6925.343","RCS_SIZE":"LARGE","OBJECT_NAME":"STARLINK-1818","LAUNCH_DATE":"2020-10-18","MEAN_MOTION_DDOT":"0.0000000000000","NORAD_CAT_ID":"46716","APOAPSIS":"548.356","INCLINATION":"53.0542","REV_AT_EPOCH":"5925","BSTAR":"-0.00003039200000","REF_FRAME":"TEME","FILE":"3214514","SITE":"AFETR","RA_OF_ASC_NODE":"135.2216","ECCENTRICITY":"0.00016580","GP_ID":"189712036","OBJECT_TYPE":"PAYLOAD","MEAN_MOTION_DOT":"-0.00000734","ARG_OF_PERICENTER":"72.7781","ELEMENT_SET_NO":"999","TLE_LINE2":"2 46716  53.0542 135.2216 0001658  72.7781 287.3389 15.06401786 59256","PERIOD":"95.592"},{"PERIAPSIS":"546.277","TLE_LINE1":"1 46717U 20073AZ  21317.87900543 -.00000303  00000-0 -14530-5 0  9993","CLASSIFICATION_TYPE":"U","MEAN_ANOMALY":"273.9371","EPOCH":"2021-11-13T21:05:46.069152","OBJECT_ID":"2020-073AZ","COUNTRY_CODE":"US","MEAN_MOTION":"15.06406654","EPHEMERIS_TYPE":"0","MEAN_ELEMENT_THEORY":"SGP4","CENTER_NAME":"EARTH","DECAY_DATE":null,"TIME_SYSTEM":"UTC","OBJECT_NAME":"STARLINK-1820","SEMIMAJOR_AXIS":"6925.328","RCS_SIZE":"LARGE","LAUNCH_DATE":"2020-10-18","NORAD_CAT_ID":"46717","APOAPSIS":"548.109","INCLINATION":"53.0546","MEAN_MOTION_DDOT":"0.0000000000000","BSTAR":"-0.00000145300000","REV_AT_EPOCH":"5946","FILE":"3214514","SITE":"AFETR","REF_FRAME":"TEME","ECCENTRICITY":"0.00013230","RA_OF_ASC_NODE":"120.1882","GP_ID":"189712287","TLE_LINE2":"2 46717  53.0546 120.1882 0001323  86.1769 273.9371 15.06406654 59461","PERIOD":"95.592","ELEMENT_SET_NO":"999","ARG_OF_PERICENTER":"86.1769","MEAN_MOTION_DOT":"-0.00000303","OBJECT_TYPE":"PAYLOAD"},{"LAUNCH_DATE":"2020-10-18","OBJECT_NAME":"STARLINK-1821","RCS_SIZE":"LARGE","SEMIMAJOR_AXIS":"6925.359","CENTER_NAME":"EARTH","DECAY_DATE":null,"TIME_SYSTEM":"UTC","OBJECT_ID":"2020-073BA","MEAN_MOTION":"15.06396717","COUNTRY_CODE":"US","EPHEMERIS_TYPE":"0","MEAN_ELEMENT_THEORY":"SGP4","EPOCH":"2021-11-13T20:29:16.683648","TLE_LINE1":"1 46718U 20073BA  21317.85366532 -.00001100  00000-0 -54932-4 0  9991","CLASSIFICATION_TYPE":"U","MEAN_ANOMALY":"279.7092","PERIAPSIS":"546.032","TLE_LINE2":"2 46718  53.0546 135.3219 0001720  80.4091 279.7092 15.06396717 59259","PERIOD":"95.592","ELEMENT_SET_NO":"999","ARG_OF_PERICENTER":"80.4091","MEAN_MOTION_DOT":"-0.00001100","OBJECT_TYPE":"PAYLOAD","GP_ID":"189712538","ECCENTRICITY":"0.00017200","RA_OF_ASC_NODE":"135.3219","FILE":"3214514","SITE":"AFETR","REF_FRAME":"TEME","BSTAR":"-0.00005493200000","REV_AT_EPOCH":"5925","NORAD_CAT_ID":"46718","APOAPSIS":"548.415","INCLINATION":"53.0546","MEAN_MOTION_DDOT":"0.0000000000000"}];
